NORAD_CAT_ID,OBJECT_NAME,OBJECT_TYPE,EPOCH,MEAN_MOTION,ECCENTRICITY,INCLINATION,RA_OF_ASC_NODE,ARG_OF_PERICENTER,MEAN_ANOMALY,BSTAR,MEAN_MOTION_DOT,MEAN_MOTION_DDOT,TLE_LINE0,TLE_LINE1,TLE_LINE2,SEMIMAJOR_AXIS,PERIOD,APOGEE,PERIGEE,DECAYED
49734.0,STARLINK-3238,PAYLOAD,2024-07-30 20:19:38,15.08848961,0.000138,53.2157,263.588,92.7222,267.3928,7.9434e-05,9.77e-06,0.0,0 STARLINK-3238,1 49734U 21115L   24212.84697275  .00000977  00000-0  79434-4 0  9990,2 49734  53.2157 263.5880 0001380  92.7222 267.3928 15.08848961146941,6917.853,95.437,540.673,538.763,0.0
49734.0,STARLINK-3238,PAYLOAD,2024-07-31 12:13:30,15.08844978,0.0001477,53.2158,260.6144,88.9938,271.1223,0.00017201,2.451e-05,0.0,0 STARLINK-3238,1 49734U 21115L   24213.50937584  .00002451  00000-0  17201-3 0  9996,2 49734  53.2158 260.6144 0001477  88.9938 271.1223 15.08844978148151,6917.865,95.437,540.752,538.708,0.0
49734.0,STARLINK-3238,PAYLOAD,2024-07-31 13:48:53,15.08847185,0.000147,53.2157,260.3167,87.0141,273.102,0.00022045,3.223e-05,0.0,0 STARLINK-3238,1 49734U 21115L   24213.57561518  .00003223  00000-0  22045-3 0  9993,2 49734  53.2157 260.3167 0001470  87.0141 273.1020 15.08847185147059,6917.858,95.437,540.74,538.707,0.0
49734.0,STARLINK-3238,PAYLOAD,2024-07-31 20:10:25,15.08856273,0.0001521,53.2159,259.1272,77.9476,282.1687,0.00040287,6.132e-05,0.0,0 STARLINK-3238,1 49734U 21115L   24213.84057237  .00006132  00000-0  40287-3 0  9991,2 49734  53.2159 259.1272 0001521  77.9476 282.1687 15.08856273147091,6917.831,95.437,540.748,538.643,0.0
49734.0,STARLINK-3238,PAYLOAD,2024-08-01 12:04:17,15.08839353,0.0001473,53.2153,256.1531,80.1819,279.9339,7.6953e-05,9.37e-06,0.0,0 STARLINK-3238,1 49734U 21115L   24214.50297811  .00000937  00000-0  76953-4 0  9996,2 49734  53.2153 256.1531 0001473  80.1819 279.9339 15.08839353148306,6917.882,95.438,540.766,538.728,0.0
49734.0,STARLINK-3238,PAYLOAD,2024-08-02 08:44:18,15.08840135,0.0001528,53.2142,252.2908,80.4014,279.7151,0.00019852,2.873e-05,0.0,0 STARLINK-3238,1 49734U 21115L   24215.36410162  .00002873  00000-0  19852-3 0  9992,2 49734  53.2142 252.2908 0001528  80.4014 279.7151 15.08840135147321,6917.88,95.438,540.802,538.688,0.0
49734.0,STARLINK-3238,PAYLOAD,2024-08-02 19:52:00,15.08844176,0.0001357,53.2137,250.2066,80.4557,279.6589,0.00034512,5.21e-05,0.0,0 STARLINK-3238,1 49734U 21115L   24215.82778103  .00005210  00000-0  34512-3 0  9993,2 49734  53.2137 250.2066 0001357  80.4557 279.6589 15.08844176148504,6917.868,95.437,540.671,538.794,0.0
49734.0,STARLINK-3238,PAYLOAD,2024-08-03 08:35:05,15.08842879,0.0001382,53.2137,247.828,82.8913,277.2236,0.00026026,3.857e-05,0.0,0 STARLINK-3238,1 49734U 21115L   24216.35770212  .00003857  00000-0  26026-3 0  9991,2 49734  53.2137 247.8280 0001382  82.8913 277.2236 15.08842879147470,6917.872,95.437,540.693,538.781,0.0
49734.0,STARLINK-3238,PAYLOAD,2024-08-03 19:42:47,15.08848244,0.0001504,53.2151,245.7431,95.6126,264.5037,0.00030519,4.574e-05,0.0,0 STARLINK-3238,1 49734U 21115L   24216.82137952  .00004574  00000-0  30519-3 0  9990,2 49734  53.2151 245.7431 0001504  95.6126 264.5037 15.08848244147543,6917.855,95.437,540.761,538.68,0.0
49734.0,STARLINK-3238,PAYLOAD,2024-08-04 05:15:06,15.08845612,0.0001581,53.2154,243.9586,98.1896,261.9275,0.00021768,3.179e-05,0.0,0 STARLINK-3238,1 49734U 21115L   24217.21881982  .00003179  00000-0  21768-3 0  9999,2 49734  53.2154 243.9586 0001581  98.1896 261.9275 15.08845612148715,6917.863,95.437,540.822,538.635,0.0
49734.0,STARLINK-3238,PAYLOAD,2024-08-04 08:25:52,15.08844921,0.000156,53.2151,243.3645,96.0826,264.0344,0.00018286,2.624e-05,0.0,0 STARLINK-3238,1 49734U 21115L   24217.35129973  .00002624  00000-0  18286-3 0  9994,2 49734  53.2151 243.3645 0001560  96.0826 264.0344 15.08844921147621,6917.865,95.437,540.81,538.651,0.0
49734.0,STARLINK-3238,PAYLOAD,2024-08-05 05:05:53,15.08842416,0.0001498,53.2144,239.5005,88.4465,271.6699,9.638e-05,1.246e-05,0.0,0 STARLINK-3238,1 49734U 21115L   24218.21242098  .00001246  00000-0  96380-4 0  9995,2 49734  53.2144 239.5005 0001498  88.4465 271.6699 15.08842416148865,6917.873,95.437,540.774,538.702,0.0
49734.0,STARLINK-3238,PAYLOAD,2024-08-05 06:41:16,15.08834538,0.0001438,53.2148,239.2039,85.3509,274.7647,0.00015661,2.205e-05,0.0,0 STARLINK-3238,1 49734U 21115L   24218.27866521  .00002205  00000-0  15661-3 0  9992,2 49734  53.2148 239.2039 0001438  85.3509 274.7647 15.08834538148876,6917.897,95.438,540.757,538.767,0.0
49734.0,STARLINK-3238,PAYLOAD,2024-08-05 08:16:39,15.08837299,0.0001435,53.2162,238.9058,90.5675,269.5482,-1.6376e-05,-5.49e-06,0.0,0 STARLINK-3238,1 49734U 21115L   24218.34490447 -.00000549  00000-0 -16376-4 0  9996,2 49734  53.2162 238.9058 0001435  90.5675 269.5482 15.08837299147772,6917.889,95.438,540.746,538.761,0.0
49734.0,STARLINK-3238,PAYLOAD,2024-08-06 08:07:26,15.08840413,0.0001414,53.2161,234.4439,85.8751,274.2403,7.6578e-05,9.31e-06,0.0,0 STARLINK-3238,1 49734U 21115L   24219.33850071  .00000931  00000-0  76578-4 0  9992,2 49734  53.2161 234.4439 0001414  85.8751 274.2403 15.08840413149033,6917.879,95.438,540.722,538.766,0.0
49734.0,STARLINK-3238,PAYLOAD,2024-08-06 17:39:44,15.08847383,0.0001375,53.216,232.6597,82.7277,277.3871,4.0144e-05,3.51e-06,0.0,0 STARLINK-3238,1 49734U 21115L   24219.73593651  .00000351  00000-0  40144-4 0  9990,2 49734  53.2160 232.6597 0001375  82.7277 277.3871 15.08847383147980,6917.858,95.437,540.674,538.772,0.0
49734.0,STARLINK-3238,PAYLOAD,2024-08-07 11:09:00,15.08829994,0.0001553,53.217,229.3935,103.5086,256.608,0.00016657,2.363e-05,0.0,0 STARLINK-3238,1 49734U 21115L   24220.46458693  .00002363  00000-0  16657-3 0  9994,2 49734  53.2170 229.3935 0001553 103.5086 256.6080 15.08829994149205,6917.911,95.438,540.85,538.702,0.0
49734.0,STARLINK-3238,PAYLOAD,2024-08-08 09:24:23,15.08843206,0.000137,53.2159,225.2267,95.0617,265.0532,8.0698e-05,9.97e-06,0.0,0 STARLINK-3238,1 49734U 21115L   24221.39194341  .00000997  00000-0  80698-4 0  9992,2 49734  53.2159 225.2267 0001370  95.0617 265.0532 15.08843206148237,6917.871,95.437,540.683,538.788,0.0
49734.0,STARLINK-3238,PAYLOAD,2024-08-09 04:29:01,15.08837145,0.000142,53.2161,221.6582,100.8658,259.2494,9.1697e-05,1.172e-05,0.0,0 STARLINK-3238,1 49734U 21115L   24222.18682770  .00001172  00000-0  91697-4 0  9995,2 49734  53.2161 221.6582 0001420 100.8658 259.2494 15.08837145149469,6917.889,95.438,540.736,538.772,0.0
49734.0,STARLINK-3238,PAYLOAD,2024-08-09 06:04:25,15.08838384,0.0001412,53.216,221.3611,102.8081,257.3069,7.5161e-05,9.08e-06,0.0,0 STARLINK-3238,1 49734U 21115L   24222.25306743  .00000908  00000-0  75161-4 0  9990,2 49734  53.2160 221.3611 0001412 102.8081 257.3069 15.08838384148362,6917.885,95.438,540.727,538.774,0.0
49734.0,STARLINK-3238,PAYLOAD,2024-08-09 17:12:06,15.08841734,0.0001417,53.2161,219.2786,90.0179,270.0976,9.2067e-05,1.178e-05,0.0,0 STARLINK-3238,1 49734U 21115L   24222.71674607  .00001178  00000-0  92067-4 0  9992,2 49734  53.2161 219.2786 0001417  90.0179 270.0976 15.08841734148433,6917.875,95.437,540.72,538.76,0.0
49734.0,STARLINK-3238,PAYLOAD,2024-08-10 04:19:48,15.08843723,0.0001462,53.2162,217.1972,90.007,270.1089,6.3359e-05,7.21e-06,0.0,0 STARLINK-3238,1 49734U 21115L   24223.18042498  .00000721  00000-0  63359-4 0  9996,2 49734  53.2162 217.1972 0001462  90.0070 270.1089 15.08843723148502,6917.869,95.437,540.745,538.723,0.0
49734.0,STARLINK-3238,PAYLOAD,2024-08-11 05:45:58,15.08847245,0.000145,53.2162,212.4397,88.1967,271.9191,0.00011688,1.573e-05,0.0,0 STARLINK-3238,1 49734U 21115L   24224.24025961  .00001573  00000-0  11688-3 0  9993,2 49734  53.2162 212.4397 0001450  88.1967 271.9191 15.08847245149777,6917.858,95.437,540.726,538.72,0.0
49734.0,STARLINK-3238,PAYLOAD,2024-08-11 16:53:39,15.08852708,0.0001456,53.2162,210.3583,87.6542,272.4617,0.00013978,1.938e-05,0.0,0 STARLINK-3238,1 49734U 21115L   24224.70393361  .00001938  00000-0  13978-3 0  9995,2 49734  53.2162 210.3583 0001456  87.6542 272.4617 15.08852708148734,6917.842,95.437,540.714,538.699,0.0
49734.0,STARLINK-3238,PAYLOAD,2024-08-12 04:01:22,15.0883836,0.0001517,53.2162,208.276,94.9993,265.1172,1.9391e-05,2.1e-07,0.0,0 STARLINK-3238,1 49734U 21115L   24225.16762459  .00000021  00000-0  19391-4 0  9992,2 49734  53.2162 208.2760 0001517  94.9993 265.1172 15.08838360149910,6917.885,95.438,540.8,538.701,0.0
49734.0,STARLINK-3238,PAYLOAD,2024-08-12 05:36:45,15.08844317,0.0001583,53.2163,207.9771,104.1089,256.0079,1.4216e-05,-6.2e-07,0.0,0 STARLINK-3238,1 49734U 21115L   24225.23386041 -.00000062  00000-0  14216-4 0  9996,2 49734  53.2163 207.9771 0001583 104.1089 256.0079 15.08844317148814,6917.867,95.437,540.827,538.637,0.0
49734.0,STARLINK-3238,PAYLOAD,2024-08-12 23:06:00,15.08840507,0.0001617,53.2168,204.705,103.7815,256.3357,2.4755e-05,1.06e-06,0.0,0 STARLINK-3238,1 49734U 21115L   24225.96250282  .00000106  00000-0  24755-4 0  9990,2 49734  53.2168 204.7050 0001617 103.7815 256.3357 15.08840507148925,6917.879,95.438,540.862,538.625,0.0
49734.0,STARLINK-3238,PAYLOAD,2024-08-13 05:27:33,15.08813983,0.0001377,53.2157,203.5187,79.6012,280.5136,-0.00037741,-6.285e-05,0.0,0 STARLINK-3238,1 49734U 21115L   24226.22747619 -.00006285  00000-0 -37741-3 0  9999,2 49734  53.2157 203.5187 0001377  79.6012 280.5136 15.08813983150075,6917.96,95.439,540.778,538.872,0.0
49734.0,STARLINK-3238,PAYLOAD,2024-08-13 08:38:20,15.08813752,0.0001397,53.2158,202.9228,80.2632,279.8518,-0.00035001,-5.85e-05,0.0,0 STARLINK-3238,1 49734U 21115L   24226.35995818 -.00005850  00000-0 -35001-3 0  9993,2 49734  53.2158 202.9228 0001397  80.2632 279.8518 15.08813752148989,6917.961,95.439,540.792,538.859,0.0
49734.0,STARLINK-3238,PAYLOAD,2024-08-14 05:18:21,15.08822927,0.0001401,53.2154,199.0579,83.5088,276.6064,4.7974e-05,4.75e-06,0.0,0 STARLINK-3238,1 49734U 21115L   24227.22108603  .00000475  00000-0  47974-4 0  9997,2 49734  53.2154 199.0579 0001401  83.5088 276.6064 15.08822927150222,6917.933,95.439,540.767,538.828,0.0
